[{"OBJECT_NAME":"IRIDIUM 163","OBJECT_ID":"2018-061G","EPOCH":"2026-03-09T13:59:42.401760","MEAN_MOTION":14.34217733,"ECCENTRICITY":0.0002172,"INCLINATION":86.3916,"RA_OF_ASC_NODE":98.3882,"ARG_OF_PERICENTER":91.0803,"MEAN_ANOMALY":269.0641,"EPHEMERIS_TYPE":0,"CLASSIFICATION_TYPE":"U","NORAD_CAT_ID":43575,"ELEMENT_SET_NO":999,"REV_AT_EPOCH":39910,"BSTAR":2.0406e-5,"MEAN_MOTION_DOT":7.7e-7,"MEAN_MOTION_DDOT":0},{"OBJECT_NAME":"COSMOS 1867 COOLANT","OBJECT_ID":"1987-060W","EPOCH":"2026-03-08T05:20:35.929248","MEAN_MOTION":14.34040122,"ECCENTRICITY":0.00134957,"INCLINATION":65.0092,"RA_OF_ASC_NODE":290.5652,"ARG_OF_PERICENTER":280.8143,"MEAN_ANOMALY":79.1423,"EPHEMERIS_TYPE":0,"CLASSIFICATION_TYPE":"U","NORAD_CAT_ID":39659,"ELEMENT_SET_NO":999,"REV_AT_EPOCH":62221,"BSTAR":0.00016918104,"MEAN_MOTION_DOT":3.73e-6,"MEAN_MOTION_DDOT":0}]
